[
    {
        "CCSDS_OMM_VERS": "3.0",
        "COMMENT": "GENERATED VIA SPACE-TRACK.ORG API",
        "CREATION_DATE": "2025-03-02T18:08:23",
        "ORIGINATOR": "18 SPCS",
        "OBJECT_NAME": "BEIDOU 3G1",
        "OBJECT_ID": "2018-085A",
        "CENTER_NAME": "EARTH",
        "REF_FRAME": "TEME",
        "TIME_SYSTEM": "UTC",
        "MEAN_ELEMENT_THEORY": "SGP4",
        "EPOCH": "2025-03-02T14:45:35.714016",
        "MEAN_MOTION": "1.00272493",
        "ECCENTRICITY": "0.00026260",
        "INCLINATION": "2.8359",
        "RA_OF_ASC_NODE": "100.9700",
        "ARG_OF_PERICENTER": "356.0021",
        "MEAN_ANOMALY": "65.0848",
        "EPHEMERIS_TYPE": "0",
        "CLASSIFICATION_TYPE": "U",
        "NORAD_CAT_ID": "43683",
        "ELEMENT_SET_NO": "999",
        "REV_AT_EPOCH": "2333",
        "BSTAR": "0.00000000000000",
        "MEAN_MOTION_DOT": "-0.00000280",
        "MEAN_MOTION_DDOT": "0.0000000000000",
        "SEMIMAJOR_AXIS": "42164.533",
        "PERIOD": "1436.087",
        "APOAPSIS": "35797.471",
        "PERIAPSIS": "35775.326",
        "OBJECT_TYPE": "PAYLOAD",
        "RCS_SIZE": "LARGE",
        "COUNTRY_CODE": "PRC",
        "LAUNCH_DATE": "2018-11-01",
        "SITE": "XSC",
        "DECAY_DATE": null,
        "FILE": "4657142",
        "GP_ID": "282087701",
        "TLE_LINE0": "0 BEIDOU 3G1",
        "TLE_LINE1": "1 43683U 18085A   25061.61499669 -.00000280  00000-0  00000-0 0  9991",
        "TLE_LINE2": "2 43683   2.8359 100.9700 0002626 356.0021  65.0848  1.00272493 23333"
    }
]